{
    "links": {
        "self": "http://www.neowsapp.com/rest/v1/neo/3837669?api_key=iIulBulltgU6a56xZRHN4H3l9WmuAYTsLGpBGhQ2"
    },
    "id": "3837669",
    "neo_reference_id": "3837669",
    "name": "(2019 AS3)",
    "designation": "2019 AS3",
    "nasa_jpl_url": "http://ssd.jpl.nasa.gov/sbdb.cgi?sstr=3837669",
    "absolute_magnitude_h": 28.1,
    "estimated_diameter": {
        "kilometers": {
            "estimated_diameter_min": 0.0063760979,
            "estimated_diameter_max": 0.0142573883
        },
        "meters": {
            "estimated_diameter_min": 6.3760978988,
            "estimated_diameter_max": 14.2573883328
        },
        "miles": {
            "estimated_diameter_min": 0.0039619223,
            "estimated_diameter_max": 0.0088591276
        },
        "feet": {
            "estimated_diameter_min": 20.9189570301,
            "estimated_diameter_max": 46.7762099378
        }
    },
    "is_potentially_hazardous_asteroid": false,
    "close_approach_data": [
        {
            "close_approach_date": "1971-02-19",
            "close_approach_date_full": "1971-Feb-19 05:13",
            "epoch_date_close_approach": 35788380000,
            "relative_velocity": {
                "kilometers_per_second": "5.2763737414",
                "kilometers_per_hour": "18994.9454689314",
                "miles_per_hour": "11802.7204220702"
            },
            "miss_distance": {
                "astronomical": "1.3056669843",
                "lunar": "507.9044568927",
                "kilometers": "195324999.780603441",
                "miles": "121369326.8931958458"
            },
            "orbiting_body": "Juptr"
        },
        {
            "close_approach_date": "1983-03-23",
            "close_approach_date_full": "1983-Mar-23 17:28",
            "epoch_date_close_approach": 417288480000,
            "relative_velocity": {
                "kilometers_per_second": "5.2032139356",
                "kilometers_per_hour": "18731.570168151",
                "miles_per_hour": "11639.0692525381"
            },
            "miss_distance": {
                "astronomical": "1.3175191629",
                "lunar": "512.5149543681",
                "kilometers": "197098060.454023023",
                "miles": "122471055.7078147974"
            },
            "orbiting_body": "Juptr"
        },
        {
            "close_approach_date": "2019-01-02",
            "close_approach_date_full": "2019-Jan-02 02:12",
            "epoch_date_close_approach": 1546395120000,
            "relative_velocity": {
                "kilometers_per_second": "15.2899227723",
                "kilometers_per_hour": "55043.7219803804",
                "miles_per_hour": "34202.0282494203"
            },
            "miss_distance": {
                "astronomical": "0.0058981763",
                "lunar": "2.2943905807",
                "kilometers": "882354.611364481",
                "miles": "548269.7318965978"
            },
            "orbiting_body": "Moon"
        },
        {
            "close_approach_date": "2019-01-02",
            "close_approach_date_full": "2019-Jan-02 04:23",
            "epoch_date_close_approach": 1546402980000,
            "relative_velocity": {
                "kilometers_per_second": "14.3898536899",
                "kilometers_per_hour": "51803.4732835385",
                "miles_per_hour": "32188.6637188742"
            },
            "miss_distance": {
                "astronomical": "0.0042052256",
                "lunar": "1.6358327584",
                "kilometers": "629092.792629472",
                "miles": "390900.1350598336"
            },
            "orbiting_body": "Earth"
        }
    ],
    "orbital_data": {
        "orbit_id": "1",
        "orbit_determination_date": "2019-01-08 07:02:47",
        "first_observation_date": "2019-01-04",
        "last_observation_date": "2019-01-06",
        "data_arc_in_days": 2,
        "observations_used": 12,
        "orbit_uncertainty": "8",
        "minimum_orbit_intersection": ".00417907",
        "jupiter_tisserand_invariant": "3.033",
        "epoch_osculation": "2458488.5",
        "eccentricity": ".6680176790489054",
        "semi_major_axis": "2.61103198080187",
        "inclination": "9.326308665029076",
        "ascending_node_longitude": "102.489270860911",
        "orbital_period": "1541.049942947786",
        "perihelion_distance": ".8668164570641388",
        "perihelion_argument": "313.0682029067571",
        "aphelion_distance": "4.355247504539602",
        "perihelion_time": "2458454.109655698631",
        "mean_anomaly": "8.033823955640816",
        "mean_motion": ".2336069649445472",
        "equinox": "J2000",
        "orbit_class": {
            "orbit_class_type": "APO",
            "orbit_class_description": "Near-Earth asteroid orbits which cross the Earth’s orbit similar to that of 1862 Apollo",
            "orbit_class_range": "a (semi-major axis) > 1.0 AU; q (perihelion) < 1.017 AU"
        }
    },
    "is_sentry_object": false
}